STARLINK-1414_new
1 15690C 20035AK  21326.12847012  .00005887  00000-0  40311-3 0  3267
2 15690  53.0014 258.1704 0001899  67.2170  10.6949 15.05583087    18
STARLINK-1414_old
1 25690C 20035AK  21325.11183094  .00004827  00000-0  33061-3 0  3254
2 25690  53.0018 262.7336 0001867  65.8244 258.7466 15.05572745    13
